[{"OBJECT_NAME":"STARLINK-33975","OBJECT_ID":"2025-091AC","EPOCH":"2026-03-09T19:21:51.575616","MEAN_MOTION":15.27618476,"ECCENTRICITY":0.00044246,"INCLINATION":43.0059,"RA_OF_ASC_NODE":51.5543,"ARG_OF_PERICENTER":308.3925,"MEAN_ANOMALY":51.6529,"EPHEMERIS_TYPE":0,"CLASSIFICATION_TYPE":"U","NORAD_CAT_ID":63802,"ELEMENT_SET_NO":999,"REV_AT_EPOCH":4903,"BSTAR":0.00092443688,"MEAN_MOTION_DOT":0.00025298,"MEAN_MOTION_DDOT":0},{"OBJECT_NAME":"OBJECT P","OBJECT_ID":"2018-099P","EPOCH":"2026-03-09T16:35:55.790016","MEAN_MOTION":15.30834106,"ECCENTRICITY":0.00076856,"INCLINATION":97.4366,"RA_OF_ASC_NODE":131.9195,"ARG_OF_PERICENTER":276.7627,"MEAN_ANOMALY":83.2739,"EPHEMERIS_TYPE":0,"CLASSIFICATION_TYPE":"U","NORAD_CAT_ID":43771,"ELEMENT_SET_NO":999,"REV_AT_EPOCH":39830,"BSTAR":0.00063632878,"MEAN_MOTION_DOT":0.00018926,"MEAN_MOTION_DDOT":0}]
